     2.10           G: GLONASS NAV DATA                     RINEX VERSION / TYPE
teqc  2015Jun23                         20210616 02:25:48UTCPGM / RUN BY / DATE
Linux 2.4.21-27.ELsmp|Opteron|gcc -static|Linux x86_64|=+   COMMENT
  2021     5    23   -7.916241884232D-09                    CORR TO SYSTEM TIME
                                                            END OF HEADER
23 21  5 24 11 45  0.0 3.870464861393D-04 1.818989403546D-12 4.239000000000D+04
    2.549552246094D+03-2.274075508118D+00 9.313225746155D-10 0.000000000000D+00
    1.134935058594D+04 2.130050659180D+00-1.862645149231D-09 3.000000000000D+00
    2.268861181641D+04-8.089523315430D-01-1.862645149231D-09 0.000000000000D+00
 8 21  5 24 12 15  0.0-5.914270877838D-05 0.000000000000D+00 4.320000000000D+04
   -3.059737792969D+03-7.928552627563D-01-9.313225746155D-10 0.000000000000D+00
    1.721361962891D+04-2.412871360779D+00-9.313225746155D-10 6.000000000000D+00
    1.864170214844D+04 2.102915763855D+00-2.793967723846D-09 0.000000000000D+00
 2 21  5 24 12 15  0.0 4.797950387001D-04 9.094947017729D-13 4.320000000000D+04
    1.319348388672D+04 7.935285568237D-01-9.313225746155D-10 0.000000000000D+00
    1.671129003906D+04 1.764801025391D+00-1.862645149231D-09-4.000000000000D+00
   -1.404485742188D+04 2.830465316772D+00 1.862645149231D-09 0.000000000000D+00
 1 21  5 24 12 15  0.0 7.989816367626D-05 0.000000000000D+00 4.320000000000D+04
    6.289091796875D+03-1.867227554321D-01-9.313225746155D-10 0.000000000000D+00
    2.392329492188D+04-8.385066986084D-01-1.862645149231D-09 1.000000000000D+00
    6.200926269531D+03 3.429489135742D+00-9.313225746155D-10 0.000000000000D+00
21 21  5 24 12 15  0.0-2.113087102771D-04-2.728484105319D-12 4.320000000000D+04
   -1.792995019531D+04 1.372506141663D+00-6.519258022308D-09 0.000000000000D+00
    1.161457714844D+04-1.341029167175D+00 1.862645149231D-09 4.000000000000D+00
   -1.392666455078D+04-2.888550758362D+00-0.000000000000D+00 0.000000000000D+00
22 21  5 24 12 15  0.0-1.142593100667D-04-9.094947017729D-13 4.320000000000D+04
   -1.573038623047D+04-7.223129272461D-03-5.587935447693D-09 0.000000000000D+00
    2.001924072266D+04 4.022092819214D-01 9.313225746155D-10-3.000000000000D+00
    2.251677734375D+03-3.585741043091D+00-1.862645149231D-09 0.000000000000D+00
23 21  5 24 12 15  0.0 3.870511427522D-04 1.818989403546D-12 4.323000000000D+04
   -1.067111328125D+03-1.720619201660D+00-0.000000000000D+00 0.000000000000D+00
    1.529628906250D+04 2.208944320679D+00-9.313225746155D-10 3.000000000000D+00
    2.037326660156D+04-1.746905326843D+00-2.793967723846D-09 0.000000000000D+00
 8 21  5 24 12 45  0.0-5.914177745581D-05 0.000000000000D+00 4.500000000000D+04
   -4.971460449219D+03-1.330314636230D+00-0.000000000000D+00 0.000000000000D+00
    1.262775634766D+04-2.633302688599D+00-0.000000000000D+00 6.000000000000D+00
    2.166205419922D+04 1.231467247009D+00-3.725290298462D-09 0.000000000000D+00
 2 21  5 24 12 45  0.0 4.797978326678D-04 9.094947017729D-13 4.500000000000D+04
    1.456265527344D+04 6.848220825195D-01-1.862645149231D-09 0.000000000000D+00
    1.916953662109D+04 9.577579498291D-01-1.862645149231D-09-4.000000000000D+00
   -8.473026855469D+03 3.320150375366D+00 9.313225746155D-10 0.000000000000D+00
 1 21  5 24 12 45  0.0 7.989909499884D-05 0.000000000000D+00 4.500000000000D+04
    5.513688964844D+03-6.994352340698D-01-1.862645149231D-09 0.000000000000D+00
    2.178868847656D+04-1.498703002930D+00-1.862645149231D-09 1.000000000000D+00
    1.205427490234D+04 3.031992912292D+00-1.862645149231D-09 0.000000000000D+00
21 21  5 24 12 45  0.0-2.113142982125D-04-2.728484105319D-12 4.500000000000D+04
   -1.531704394531D+04 1.484184265137D+00-4.656612873077D-09 0.000000000000D+00
    8.537851074219D+03-2.065113067627D+00 2.793967723846D-09 4.000000000000D+00
   -1.852011132812D+04-2.182179450989D+00 0.000000000000D+00 0.000000000000D+00
22 21  5 24 12 45  0.0-1.142611727118D-04-9.094947017729D-13 4.500000000000D+04
   -1.523404248047D+04 5.231571197510D-01-5.587935447693D-09 0.000000000000D+00
    2.009326171875D+04-3.435792922974D-01 1.862645149231D-09-3.000000000000D+00
   -4.206305664062D+03-3.543489456177D+00-9.313225746155D-10 0.000000000000D+00
23 21  5 24 12 45  0.0 3.870548680425D-04 1.818989403546D-12 4.500000000000D+04
   -3.592416015625D+03-1.080401420593D+00-1.862645149231D-09 0.000000000000D+00
    1.912567675781D+04 1.996308326721D+00-0.000000000000D+00 3.000000000000D+00
    1.648117919922D+04-2.549502372742D+00-2.793967723846D-09 0.000000000000D+00
12 21  5 24 12 45  0.0 2.315035089850D-04 2.728484105319D-12 4.506000000000D+04
    2.152326660156D+03-3.140819549561D+00-2.793967723846D-09 0.000000000000D+00
    1.097087548828D+04-1.102828979492D-01 0.000000000000D+00-1.000000000000D+00
   -2.290288867188D+04-3.458786010742D-01 1.862645149231D-09 0.000000000000D+00
 2 21  5 24 13 15  0.0 4.798006266356D-04 9.094947017729D-13 4.680000000000D+04
    1.550622656250D+04 3.232822418213D-01-1.862645149231D-09 0.000000000000D+00
    2.016256152344D+04 1.561231613159D-01-1.862645149231D-09-4.000000000000D+00
   -2.246870605469D+03 3.552919387817D+00 0.000000000000D+00 0.000000000000D+00
22 21  5 24 13 15  0.0-1.142639666796D-04-9.094947017729D-13 4.680000000000D+04
   -1.399195654297D+04 8.134374618530D-01-5.587935447693D-09 0.000000000000D+00
    1.872955078125D+04-1.176782608032D+00 3.725290298462D-09-3.000000000000D+00
   -1.034113476562D+04-3.229012489319D+00-0.000000000000D+00 0.000000000000D+00
 1 21  5 24 13 15  0.0 7.990002632141D-05 0.000000000000D+00 4.680000000000D+04
    3.710618164062D+03-1.312271118164D+00-9.313225746155D-10 0.000000000000D+00
    1.867270751953D+04-1.919013023376D+00-9.313225746155D-10 1.000000000000D+00
    1.697512402344D+04 2.400147438049D+00-2.793967723846D-09 0.000000000000D+00
12 21  5 24 13 15  0.0 2.315081655979D-04 2.728484105319D-12 4.680000000000D+04
   -3.499174316406D+03-3.086891174316D+00-3.725290298462D-09 0.000000000000D+00
    1.118287207031D+04 3.422489166260D-01 1.862645149231D-09-1.000000000000D+00
   -2.262980126953D+04 6.473836898804D-01 1.862645149231D-09 0.000000000000D+00
23 21  5 24 13 15  0.0 3.870595246553D-04 1.818989403546D-12 4.680000000000D+04
   -4.973794921875D+03-4.685974121094D-01-3.725290298462D-09 0.000000000000D+00
    2.231031494141D+04 1.497451782227D+00 9.313225746155D-10 3.000000000000D+00
    1.131383007812D+04-3.154664993286D+00-2.793967723846D-09 0.000000000000D+00
24 21  5 24 13 15  0.0 4.387553781271D-05 1.818989403546D-12 4.686000000000D+04
    3.957246093750D+03-1.160961151123D+00-0.000000000000D+00 0.000000000000D+00
    1.424605908203D+04 2.599323272705D+00-9.313225746155D-10 2.000000000000D+00
    2.079389599609D+04-1.561452865601D+00-2.793967723846D-09 0.000000000000D+00
 2 21  5 24 13 45  0.0 4.798043519258D-04 1.818989403546D-12 4.860000000000D+04
    1.559669921875D+04-2.532215118408D-01-1.862645149231D-09 0.000000000000D+00
    1.980142236328D+04-5.298709869385D-01-1.862645149231D-09-4.000000000000D+00
    4.152624511719D+03 3.511634826660D+00-0.000000000000D+00 0.000000000000D+00
 1 21  5 24 13 45  0.0 7.990375161171D-05 0.000000000000D+00 4.860000000000D+04
    7.926376953125D+02-1.919776916504D+00-9.313225746155D-10 0.000000000000D+00
    1.504785156250D+04-2.061513900757D+00-0.000000000000D+00 1.000000000000D+00
    2.058335009766D+04 1.583022117615D+00-2.793967723846D-09 0.000000000000D+00
12 21  5 24 13 45  0.0 2.315128222108D-04 2.728484105319D-12 4.860000000000D+04
   -8.781096679688D+03-2.735515594482D+00-3.725290298462D-09 0.000000000000D+00
    1.215805566406D+04 7.203550338745D-01 3.725290298462D-09-1.000000000000D+00
   -2.060237255859D+04 1.590665817261D+00 9.313225746155D-10 0.000000000000D+00
22 21  5 24 13 45  0.0-1.142658293247D-04-9.094947017729D-13 4.860000000000D+04
   -1.246560205078D+04 8.387413024902D-01-4.656612873077D-09 0.000000000000D+00
    1.587425732422D+04-1.981004714966D+00 4.656612873077D-09-3.000000000000D+00
   -1.568147021484D+04-2.666367530823D+00 0.000000000000D+00 0.000000000000D+00
23 21  5 24 13 45  0.0 3.870641812682D-04 1.818989403546D-12 4.860000000000D+04
   -5.360496093750D+03 8.909225463867D-03-4.656612873077D-09 0.000000000000D+00
    2.437510351562D+04 7.642440795898D-01 1.862645149231D-09 3.000000000000D+00
    5.271270996094D+03-3.515659332275D+00-2.793967723846D-09 0.000000000000D+00
24 21  5 24 13 45  0.0 4.387833178043D-05 1.818989403546D-12 4.860000000000D+04
    2.360878417969D+03-6.179733276367D-01-1.862645149231D-09 0.000000000000D+00
    1.867864208984D+04 2.276996612549D+00-0.000000000000D+00 2.000000000000D+00
    1.721632177734D+04-2.387891769409D+00-2.793967723846D-09 0.000000000000D+00
 2 21  5 24 14 15  0.0 4.798080772161D-04 1.818989403546D-12 5.040000000000D+04
    1.451116308594D+04-9.679327011108D-01-1.862645149231D-09 0.000000000000D+00
    1.837781298828D+04-1.012451171875D+00-9.313225746155D-10-4.000000000000D+00
    1.023249755859D+04 3.200178146362D+00-1.862645149231D-09 0.000000000000D+00
22 21  5 24 14 15  0.0-1.142676919699D-04-9.094947017729D-13 5.040000000000D+04
   -1.111940625000D+04 6.206245422363D-01-2.793967723846D-09 0.000000000000D+00
    1.168486914062D+04-2.641003608704D+00 4.656612873077D-09-3.000000000000D+00
   -1.981652832031D+04-1.898365974426D+00 9.313225746155D-10 0.000000000000D+00
12 21  5 24 14 15  0.0 2.315184101462D-04 2.728484105319D-12 5.040000000000D+04
   -1.319991210938D+04-2.140172004700D+00-2.793967723846D-09 0.000000000000D+00
    1.367426220703D+04 9.296426773071D-01 5.587935447693D-09-1.000000000000D+00
   -1.697757861328D+04 2.410647392273D+00 0.000000000000D+00 0.000000000000D+00
23 21  5 24 14 15  0.0 3.870679065585D-04 1.818989403546D-12 5.040000000000D+04
   -5.070464843750D+03 2.732057571411D-01-4.656612873077D-09 0.000000000000D+00
    2.497475830078D+04-1.128635406494D-01 3.725290298462D-09 3.000000000000D+00
   -1.178951171875D+03-3.604711532593D+00-1.862645149231D-09 0.000000000000D+00
